*******************************************************************************
JPL/HORIZONS                45 Eugenia (A857 MA)           2023-Sep-04 11:04:04
Rec #:      45 (+COV) Soln.date: 2023-Aug-23_19:05:44  # obs: 11705 (1866-2023)
 
IAU76/J2000 helio. ecliptic osc. elements (au, days, deg., period=Julian yrs):
 
  EPOCH=  2457638.5 ! 2016-Sep-07.00 (TDB)         Residual RMS= .3218
   EC= .08375064965461507  QR= 2.492343413036165   TP= 2458428.2980462629
   OM= 147.6750184514828   W=  88.68723730068793   IN= 6.603673876806154
   A= 2.720158450422544    MA= 186.4882759492728   ADIST= 2.947973487808923
   PER= 4.48642            N= .219691255           ANGMOM= .028271579
   DAN= 2.69591            DDN= 2.70627            L= 236.353491
   B= 6.6019329            MOID= 1.49100006        TP= 2018-Nov-05.7980462629
 
Asteroid physical parameters (km, seconds, rotational period in hours):
   GM= n.a.                RAD= 101.1635           ROTPER= 5.699
   H= 7.8                  G= .070                 B-V= .676
                           ALBEDO= .045            STYP= C

ASTEROID comments: 
1: soln ref.= JPL#130, OCC=0
2: source=ORB
*******************************************************************************


*******************************************************************************
Ephemeris / API_USER Mon Sep  4 11:04:04 2023 Pasadena, USA      / Horizons
*******************************************************************************
Target body name: 45 Eugenia (A857 MA)            {source: JPL#130}
Center body name: Solar System Barycenter (0)     {source: DE441}
Center-site name: BODY CENTER
*******************************************************************************
Start time      : A.D. 2023-Aug-12 00:00:00.0000 TDB
Stop  time      : A.D. 2023-Aug-13 00:00:00.0000 TDB
Step-size       : 2880 minutes
*******************************************************************************
Center geodetic : 0.0, 0.0, 0.0                   {E-lon(deg),Lat(deg),Alt(km)}
Center cylindric: 0.0, 0.0, 0.0                   {E-lon(deg),Dxy(km),Dz(km)}
Center radii    : (undefined)
Small perturbers: Yes                             {source: SB441-N16}
Output units    : KM-S
Calendar mode   : Mixed Julian/Gregorian
Output type     : GEOMETRIC cartesian states
Output format   : 2 (position and velocity)
Reference frame : Ecliptic of J2000.0
*******************************************************************************
Initial IAU76/J2000 heliocentric ecliptic osculating elements (au, days, deg.):
  EPOCH=  2457638.5 ! 2016-Sep-07.00 (TDB)         Residual RMS= .3218         
   EC= .08375064965461507  QR= 2.492343413036165   TP= 2458428.2980462629      
   OM= 147.6750184514828   W=  88.68723730068793   IN= 6.603673876806154       
  Equivalent ICRF heliocentric cartesian coordinates (au, au/d):
   X= 1.378942951378187E+00  Y= 2.503515535630854E+00  Z= 7.170407913528165E-01
  VX=-8.497714754535099E-03 VY= 4.050397997496502E-03 VZ= 1.854518024003306E-03
Asteroid physical parameters (km, seconds, rotational period in hours):        
   GM= n.a.                RAD= 101.1635           ROTPER= 5.699               
   H= 7.8                  G= .070                 B-V= .676                   
                           ALBEDO= .045            STYP= C                     
*******************************************************************************
JDTDB
   X     Y     Z
   VX    VY    VZ
*******************************************************************************
$$SOE
2460168.500000000 = A.D. 2023-Aug-12 00:00:00.0000 TDB 
 X =-4.737066306508156E+07 Y =-3.718002395146728E+08 Z = 3.921146921284048E+07
 VX= 1.919268503845272E+01 VY=-3.197121641603586E+00 VZ=-8.797147900555773E-01
$$EOE
*******************************************************************************
 
TIME

  Barycentric Dynamical Time ("TDB" or T_eph) output was requested. This
continuous coordinate time is equivalent to the relativistic proper time
of a clock at rest in a reference frame co-moving with the solar system
barycenter but outside the system's gravity well. It is the independent
variable in the solar system relativistic equations of motion.

  TDB runs at a uniform rate of one SI second per second and is independent
of irregularities in Earth's rotation.
 
CALENDAR SYSTEM

  Mixed calendar mode was active such that calendar dates after AD 1582-Oct-15
(if any) are in the modern Gregorian system. Dates prior to 1582-Oct-5 (if any)
are in the Julian calendar system, which is automatically extended for dates
prior to its adoption on 45-Jan-1 BC.  The Julian calendar is useful for
matching historical dates. The Gregorian calendar more accurately corresponds
to the Earth's orbital motion and seasons. A "Gregorian-only" calendar mode is
available if such physical events are the primary interest.

REFERENCE FRAME AND COORDINATES

  Ecliptic at the standard reference epoch

    Reference epoch: J2000.0
    X-Y plane: adopted Earth orbital plane at the reference epoch
               Note: IAU76 obliquity of 84381.448 arcseconds wrt ICRF X-Y plane
    X-axis   : ICRF
    Z-axis   : perpendicular to the X-Y plane in the directional (+ or -) sense
               of Earth's north pole at the reference epoch.

  Symbol meaning:

    JDTDB    Julian Day Number, Barycentric Dynamical Time
      X      X-component of position vector (km)
      Y      Y-component of position vector (km)
      Z      Z-component of position vector (km)
      VX     X-component of velocity vector (km/sec)                           
      VY     Y-component of velocity vector (km/sec)                           
      VZ     Z-component of velocity vector (km/sec)                           

ABERRATIONS AND CORRECTIONS

 Geometric state vectors have NO corrections or aberrations applied.

Computations by ...

    Solar System Dynamics Group, Horizons On-Line Ephemeris System
    4800 Oak Grove Drive, Jet Propulsion Laboratory
    Pasadena, CA  91109   USA

    General site: https://ssd.jpl.nasa.gov/
    Mailing list: https://ssd.jpl.nasa.gov/email_list.html
    System news : https://ssd.jpl.nasa.gov/horizons/news.html
    User Guide  : https://ssd.jpl.nasa.gov/horizons/manual.html
    Connect     : browser        https://ssd.jpl.nasa.gov/horizons/app.html#/x
                  API            https://ssd-api.jpl.nasa.gov/doc/horizons.html
                  command-line   telnet ssd.jpl.nasa.gov 6775
                  e-mail/batch   https://ssd.jpl.nasa.gov/ftp/ssd/hrzn_batch.txt
                  scripts        https://ssd.jpl.nasa.gov/ftp/ssd/SCRIPTS
    Author      : Jon.D.Giorgini@jpl.nasa.gov
*******************************************************************************
